<?xml version="1.0" encoding="UTF-8"?>
<ndm xmlns:xsi="http://www.w3.org/2001/XMLSchema-instance" xsi:noNamespaceSchemaLocation="https://sanaregistry.org/r/ndmxml_unqualified/ndmxml-2.0.0-master-2.0.xsd">
<omm id="CCSDS_OMM_VERS" version="2.0">
<header><CREATION_DATE/><ORIGINATOR/></header><body><segment><metadata><OBJECT_NAME>ORBCOMM-X</OBJECT_NAME><OBJECT_ID>1991-050C</OBJECT_ID><CENTER_NAME>EARTH</CENTER_NAME><REF_FRAME>TEME</REF_FRAME><TIME_SYSTEM>UTC</TIME_SYSTEM><MEAN_ELEMENT_THEORY>SGP4</MEAN_ELEMENT_THEORY></metadata><data><meanElements><EPOCH>2025-12-04T16:58:59.509344</EPOCH><MEAN_MOTION>14.43425533</MEAN_MOTION><ECCENTRICITY>.0004271</ECCENTRICITY><INCLINATION>98.3241</INCLINATION><RA_OF_ASC_NODE>41.6652</RA_OF_ASC_NODE><ARG_OF_PERICENTER>45.4716</ARG_OF_PERICENTER><MEAN_ANOMALY>314.6823</MEAN_ANOMALY></meanElements><tleParameters><EPHEMERIS_TYPE>0</EPHEMERIS_TYPE><CLASSIFICATION_TYPE>U</CLASSIFICATION_TYPE><NORAD_CAT_ID>21576</NORAD_CAT_ID><ELEMENT_SET_NO>999</ELEMENT_SET_NO><REV_AT_EPOCH>80671</REV_AT_EPOCH><BSTAR>.22746E-3</BSTAR><MEAN_MOTION_DOT>.725E-5</MEAN_MOTION_DOT><MEAN_MOTION_DDOT>0</MEAN_MOTION_DDOT></tleParameters></data></segment></body></omm>
<omm id="CCSDS_OMM_VERS" version="2.0">
<header><CREATION_DATE/><ORIGINATOR/></header><body><segment><metadata><OBJECT_NAME>ORBCOMM FM01</OBJECT_NAME><OBJECT_ID>1995-017A</OBJECT_ID><CENTER_NAME>EARTH</CENTER_NAME><REF_FRAME>TEME</REF_FRAME><TIME_SYSTEM>UTC</TIME_SYSTEM><MEAN_ELEMENT_THEORY>SGP4</MEAN_ELEMENT_THEORY></metadata><data><meanElements><EPOCH>2025-12-04T12:17:50.212608</EPOCH><MEAN_MOTION>14.92897040</MEAN_MOTION><ECCENTRICITY>.0003145</ECCENTRICITY><INCLINATION>69.9633</INCLINATION><RA_OF_ASC_NODE>8.6495</RA_OF_ASC_NODE><ARG_OF_PERICENTER>344.3966</ARG_OF_PERICENTER><MEAN_ANOMALY>15.7093</MEAN_ANOMALY></meanElements><tleParameters><EPHEMERIS_TYPE>0</EPHEMERIS_TYPE><CLASSIFICATION_TYPE>U</CLASSIFICATION_TYPE><NORAD_CAT_ID>23545</NORAD_CAT_ID><ELEMENT_SET_NO>999</ELEMENT_SET_NO><REV_AT_EPOCH>63790</REV_AT_EPOCH><BSTAR>.16282E-2</BSTAR><MEAN_MOTION_DOT>.16865E-3</MEAN_MOTION_DOT><MEAN_MOTION_DDOT>0</MEAN_MOTION_DDOT></tleParameters></data></segment></body></omm>
<omm id="CCSDS_OMM_VERS" version="2.0">
<header><CREATION_DATE/><ORIGINATOR/></header><body><segment><metadata><OBJECT_NAME>ORBCOMM FM02</OBJECT_NAME><OBJECT_ID>1995-017B</OBJECT_ID><CENTER_NAME>EARTH</CENTER_NAME><REF_FRAME>TEME</REF_FRAME><TIME_SYSTEM>UTC</TIME_SYSTEM><MEAN_ELEMENT_THEORY>SGP4</MEAN_ELEMENT_THEORY></metadata><data><meanElements><EPOCH>2025-12-04T12:41:23.614656</EPOCH><MEAN_MOTION>14.94424014</MEAN_MOTION><ECCENTRICITY>.0003967</ECCENTRICITY><INCLINATION>69.9650</INCLINATION><RA_OF_ASC_NODE>27.2853</RA_OF_ASC_NODE><ARG_OF_PERICENTER>6.0734</ARG_OF_PERICENTER><MEAN_ANOMALY>354.0470</MEAN_ANOMALY></meanElements><tleParameters><EPHEMERIS_TYPE>0</EPHEMERIS_TYPE><CLASSIFICATION_TYPE>U</CLASSIFICATION_TYPE><NORAD_CAT_ID>23546</NORAD_CAT_ID><ELEMENT_SET_NO>999</ELEMENT_SET_NO><REV_AT_EPOCH>63757</REV_AT_EPOCH><BSTAR>.19007E-2</BSTAR><MEAN_MOTION_DOT>.20491E-3</MEAN_MOTION_DOT><MEAN_MOTION_DDOT>0</MEAN_MOTION_DDOT></tleParameters></data></segment></body></omm>
<omm id="CCSDS_OMM_VERS" version="2.0">
<header><CREATION_DATE/><ORIGINATOR/></header><body><segment><metadata><OBJECT_NAME>ORBCOMM FM08</OBJECT_NAME><OBJECT_ID>1997-084A</OBJECT_ID><CENTER_NAME>EARTH</CENTER_NAME><REF_FRAME>TEME</REF_FRAME><TIME_SYSTEM>UTC</TIME_SYSTEM><MEAN_ELEMENT_THEORY>SGP4</MEAN_ELEMENT_THEORY></metadata><data><meanElements><EPOCH>2025-12-04T12:58:22.660320</EPOCH><MEAN_MOTION>14.46544875</MEAN_MOTION><ECCENTRICITY>.0007096</ECCENTRICITY><INCLINATION>45.0136</INCLINATION><RA_OF_ASC_NODE>269.6959</RA_OF_ASC_NODE><ARG_OF_PERICENTER>20.7422</ARG_OF_PERICENTER><MEAN_ANOMALY>339.3717</MEAN_ANOMALY></meanElements><tleParameters><EPHEMERIS_TYPE>0</EPHEMERIS_TYPE><CLASSIFICATION_TYPE>U</CLASSIFICATION_TYPE><NORAD_CAT_ID>25112</NORAD_CAT_ID><ELEMENT_SET_NO>999</ELEMENT_SET_NO><REV_AT_EPOCH>46603</REV_AT_EPOCH><BSTAR>.11701E-2</BSTAR><MEAN_MOTION_DOT>.4115E-4</MEAN_MOTION_DOT><MEAN_MOTION_DDOT>0</MEAN_MOTION_DDOT></tleParameters></data></segment></body></omm>
<omm id="CCSDS_OMM_VERS" version="2.0">
<header><CREATION_DATE/><ORIGINATOR/></header><body><segment><metadata><OBJECT_NAME>ORBCOMM FM10</OBJECT_NAME><OBJECT_ID>1997-084B</OBJECT_ID><CENTER_NAME>EARTH</CENTER_NAME><REF_FRAME>TEME</REF_FRAME><TIME_SYSTEM>UTC</TIME_SYSTEM><MEAN_ELEMENT_THEORY>SGP4</MEAN_ELEMENT_THEORY></metadata><data><meanElements><EPOCH>2025-12-04T03:12:23.272416</EPOCH><MEAN_MOTION>14.46293647</MEAN_MOTION><ECCENTRICITY>.00061957</ECCENTRICITY><INCLINATION>45.0147</INCLINATION><RA_OF_ASC_NODE>274.3444</RA_OF_ASC_NODE><ARG_OF_PERICENTER>347.0313</ARG_OF_PERICENTER><MEAN_ANOMALY>13.0379</MEAN_ANOMALY></meanElements><tleParameters><EPHEMERIS_TYPE>0</EPHEMERIS_TYPE><CLASSIFICATION_TYPE>U</CLASSIFICATION_TYPE><NORAD_CAT_ID>25113</NORAD_CAT_ID><ELEMENT_SET_NO>999</ELEMENT_SET_NO><REV_AT_EPOCH>64111</REV_AT_EPOCH><BSTAR>.10041206E-2</BSTAR><MEAN_MOTION_DOT>.3491E-4</MEAN_MOTION_DOT><MEAN_MOTION_DDOT>0</MEAN_MOTION_DDOT></tleParameters></data></segment></body></omm>
<omm id="CCSDS_OMM_VERS" version="2.0">
<header><CREATION_DATE/><ORIGINATOR/></header><body><segment><metadata><OBJECT_NAME>ORBCOMM FM11</OBJECT_NAME><OBJECT_ID>1997-084C</OBJECT_ID><CENTER_NAME>EARTH</CENTER_NAME><REF_FRAME>TEME</REF_FRAME><TIME_SYSTEM>UTC</TIME_SYSTEM><MEAN_ELEMENT_THEORY>SGP4</MEAN_ELEMENT_THEORY></metadata><data><meanElements><EPOCH>2025-12-04T05:41:34.744416</EPOCH><MEAN_MOTION>14.46038399</MEAN_MOTION><ECCENTRICITY>.0006976</ECCENTRICITY><INCLINATION>45.0135</INCLINATION><RA_OF_ASC_NODE>274.7945</RA_OF_ASC_NODE><ARG_OF_PERICENTER>349.4077</ARG_OF_PERICENTER><MEAN_ANOMALY>10.6627</MEAN_ANOMALY></meanElements><tleParameters><EPHEMERIS_TYPE>0</EPHEMERIS_TYPE><CLASSIFICATION_TYPE>U</CLASSIFICATION_TYPE><NORAD_CAT_ID>25114</NORAD_CAT_ID><ELEMENT_SET_NO>999</ELEMENT_SET_NO><REV_AT_EPOCH>46608</REV_AT_EPOCH><BSTAR>.11257E-2</BSTAR><MEAN_MOTION_DOT>.3911E-4</MEAN_MOTION_DOT><MEAN_MOTION_DDOT>0</MEAN_MOTION_DDOT></tleParameters></data></segment></body></omm>
<omm id="CCSDS_OMM_VERS" version="2.0">
<header><CREATION_DATE/><ORIGINATOR/></header><body><segment><metadata><OBJECT_NAME>ORBCOMM FM12</OBJECT_NAME><OBJECT_ID>1997-084D</OBJECT_ID><CENTER_NAME>EARTH</CENTER_NAME><REF_FRAME>TEME</REF_FRAME><TIME_SYSTEM>UTC</TIME_SYSTEM><MEAN_ELEMENT_THEORY>SGP4</MEAN_ELEMENT_THEORY></metadata><data><meanElements><EPOCH>2025-12-04T06:23:35.313216</EPOCH><MEAN_MOTION>14.46060564</MEAN_MOTION><ECCENTRICITY>.0006106</ECCENTRICITY><INCLINATION>45.0138</INCLINATION><RA_OF_ASC_NODE>274.3873</RA_OF_ASC_NODE><ARG_OF_PERICENTER>346.1025</ARG_OF_PERICENTER><MEAN_ANOMALY>13.9658</MEAN_ANOMALY></meanElements><tleParameters><EPHEMERIS_TYPE>0</EPHEMERIS_TYPE><CLASSIFICATION_TYPE>U</CLASSIFICATION_TYPE><NORAD_CAT_ID>25115</NORAD_CAT_ID><ELEMENT_SET_NO>999</ELEMENT_SET_NO><REV_AT_EPOCH>46588</REV_AT_EPOCH><BSTAR>.11052E-2</BSTAR><MEAN_MOTION_DOT>.3838E-4</MEAN_MOTION_DOT><MEAN_MOTION_DDOT>0</MEAN_MOTION_DDOT></tleParameters></data></segment></body></omm>
<omm id="CCSDS_OMM_VERS" version="2.0">
<header><CREATION_DATE/><ORIGINATOR/></header><body><segment><metadata><OBJECT_NAME>ORBCOMM FM09</OBJECT_NAME><OBJECT_ID>1997-084E</OBJECT_ID><CENTER_NAME>EARTH</CENTER_NAME><REF_FRAME>TEME</REF_FRAME><TIME_SYSTEM>UTC</TIME_SYSTEM><MEAN_ELEMENT_THEORY>SGP4</MEAN_ELEMENT_THEORY></metadata><data><meanElements><EPOCH>2025-12-04T12:31:30.419040</EPOCH><MEAN_MOTION>14.45908526</MEAN_MOTION><ECCENTRICITY>.0007361</ECCENTRICITY><INCLINATION>45.0144</INCLINATION><RA_OF_ASC_NODE>274.2770</RA_OF_ASC_NODE><ARG_OF_PERICENTER>339.4373</ARG_OF_PERICENTER><MEAN_ANOMALY>20.6181</MEAN_ANOMALY></meanElements><tleParameters><EPHEMERIS_TYPE>0</EPHEMERIS_TYPE><CLASSIFICATION_TYPE>U</CLASSIFICATION_TYPE><NORAD_CAT_ID>25116</NORAD_CAT_ID><ELEMENT_SET_NO>999</ELEMENT_SET_NO><REV_AT_EPOCH>46612</REV_AT_EPOCH><BSTAR>.10419E-2</BSTAR><MEAN_MOTION_DOT>.3598E-4</MEAN_MOTION_DOT><MEAN_MOTION_DDOT>0</MEAN_MOTION_DDOT></tleParameters></data></segment></body></omm>

</ndm>
