ORBCOMM-X               
1 21576U 91050C   25338.70763321  .00000725  00000+0  22746-3 0  9993
2 21576  98.3241  41.6652 0004271  45.4716 314.6823 14.43425533806718
ORBCOMM FM01            
1 23545U 95017A   25338.51238672  .00016865  00000+0  16282-2 0  9992
2 23545  69.9633   8.6495 0003145 344.3966  15.7093 14.92897040637901
ORBCOMM FM02            
1 23546U 95017B   25338.52874554  .00020491  00000+0  19007-2 0  9997
2 23546  69.9650  27.2853 0003967   6.0734 354.0470 14.94424014637573
ORBCOMM FM08            
1 25112U 97084A   25338.54054005  .00004115  00000+0  11701-2 0  9995
2 25112  45.0136 269.6959 0007096  20.7422 339.3717 14.46544875466037
ORBCOMM FM10            
1 25113U 97084B   25338.13360269  .00003491  00000+0  10041-2 0  9995
2 25113  45.0147 274.3444 0006195 347.0313  13.0379 14.46293647641117
ORBCOMM FM11            
1 25114U 97084C   25338.23720769  .00003911  00000+0  11257-2 0  9999
2 25114  45.0135 274.7945 0006976 349.4077  10.6627 14.46038399466086
ORBCOMM FM12            
1 25115U 97084D   25338.26638094  .00003838  00000+0  11052-2 0  9993
2 25115  45.0138 274.3873 0006106 346.1025  13.9658 14.46060564465884
ORBCOMM FM09            
1 25116U 97084E   25338.52187985  .00003598  00000+0  10419-2 0  9990
2 25116  45.0144 274.2770 0007361 339.4373  20.6181 14.45908526466124
